<?xml version="1.0" encoding="UTF-8"?>
<gpx creator="StravaGPX" version="1.1" xmlns="http://www.topografix.com/GPX/1/1" xmlns:xsi="http://www.w3.org/2001/XMLSchema-instance" xsi:schemaLocation="http://www.topografix.com/GPX/1/1 http://www.topografix.com/GPX/1/1/gpx.xsd">
 <metadata>
  <name>radzymin zawody </name>
  <author>
   <name>Bartek Migryt</name>
   <link href="https://www.strava.com/athletes/140983476"/>
  </author>
  <copyright author="OpenStreetMap contributors">
   <year>2020</year>
   <license>https://www.openstreetmap.org/copyright</license>
  </copyright>
  <link href="https://www.strava.com/routes/3492627478217008160"/>
 </metadata>
 <trk>
  <name>radzymin zawody </name>
  <link href="https://www.strava.com/routes/3492627478217008160"/>
  <type>gravel_biking</type>
  <trkseg>
   <trkpt lat="52.41698" lon="21.1566">
    <ele>85.74000000000001</ele>
   </trkpt>
   <trkpt lat="52.417676670727786" lon="21.15728997824173">
    <ele>86.02000000000001</ele>
   </trkpt>
   <trkpt lat="52.418373337439434" lon="21.157979978285837">
    <ele>85.83</ele>
   </trkpt>
   <trkpt lat="52.419070000000005" lon="21.15867">
    <ele>85.51</ele>
   </trkpt>
   <trkpt lat="52.419270000000004" lon="21.158730000000002">
    <ele>85.39</ele>
   </trkpt>
   <trkpt lat="52.4196" lon="21.15877">
    <ele>85.24000000000001</ele>
   </trkpt>
   <trkpt lat="52.41967" lon="21.158810000000003">
    <ele>85.24000000000001</ele>
   </trkpt>
   <trkpt lat="52.42011667594685" lon="21.15985997867912">
    <ele>85.17</ele>
   </trkpt>
   <trkpt lat="52.420563342593674" lon="21.16090997863211">
    <ele>85.38000000000001</ele>
   </trkpt>
   <trkpt lat="52.42101" lon="21.16196">
    <ele>85.69</ele>
   </trkpt>
   <trkpt lat="52.42136000000001" lon="21.162830000000003">
    <ele>85.91</ele>
   </trkpt>
   <trkpt lat="52.421350000000004" lon="21.16298">
    <ele>85.91</ele>
   </trkpt>
   <trkpt lat="52.42105" lon="21.1639">
    <ele>85.86</ele>
   </trkpt>
   <trkpt lat="52.42174500558371" lon="21.164564968540287">
    <ele>86.15</ele>
   </trkpt>
   <trkpt lat="52.4224400074373" lon="21.165229958045536">
    <ele>86.32000000000001</ele>
   </trkpt>
   <trkpt lat="52.42313500556054" lon="21.165894968516838">
    <ele>86.56000000000002</ele>
   </trkpt>
   <trkpt lat="52.42383" lon="21.16656">
    <ele>87.09</ele>
   </trkpt>
   <trkpt lat="52.42391000000001" lon="21.166670000000003">
    <ele>87.09</ele>
   </trkpt>
   <trkpt lat="52.42401" lon="21.166580000000003">
    <ele>87.10000000000001</ele>
   </trkpt>
   <trkpt lat="52.424130000000005" lon="21.16647">
    <ele>87.10000000000001</ele>
   </trkpt>
   <trkpt lat="52.42419" lon="21.166390000000003">
    <ele>87.05</ele>
   </trkpt>
   <trkpt lat="52.42423" lon="21.16627">
    <ele>87.05</ele>
   </trkpt>
   <trkpt lat="52.424310000000006" lon="21.165640000000003">
    <ele>87.24000000000001</ele>
   </trkpt>
   <trkpt lat="52.424730000000004" lon="21.16467">
    <ele>87.20000000000002</ele>
   </trkpt>
   <trkpt lat="52.42515333880526" lon="21.16386334885837">
    <ele>87.26</ele>
   </trkpt>
   <trkpt lat="52.42557667212175" lon="21.163056682224013">
    <ele>87.04</ele>
   </trkpt>
   <trkpt lat="52.426" lon="21.16225">
    <ele>86.5</ele>
   </trkpt>
   <trkpt lat="52.426280000000006" lon="21.16177">
    <ele>86.41</ele>
   </trkpt>
   <trkpt lat="52.42681250759527" lon="21.160995028092177">
    <ele>85.59000000000002</ele>
   </trkpt>
   <trkpt lat="52.427345010124476" lon="21.160220037460572">
    <ele>85.29</ele>
   </trkpt>
   <trkpt lat="52.42787750758741" lon="21.159445028104553">
    <ele>84.93</ele>
   </trkpt>
   <trkpt lat="52.42841000000001" lon="21.15867">
    <ele>84.97</ele>
   </trkpt>
   <trkpt lat="52.428380000000004" lon="21.158620000000003">
    <ele>85.03</ele>
   </trkpt>
   <trkpt lat="52.42897000312617" lon="21.1577600115014">
    <ele>85.48</ele>
   </trkpt>
   <trkpt lat="52.42956" lon="21.1569">
    <ele>86.47</ele>
   </trkpt>
   <trkpt lat="52.42958" lon="21.15681">
    <ele>86.47</ele>
   </trkpt>
   <trkpt lat="52.42974" lon="21.156540000000003">
    <ele>86.59</ele>
   </trkpt>
   <trkpt lat="52.429880000000004" lon="21.156370000000003">
    <ele>87.10000000000001</ele>
   </trkpt>
   <trkpt lat="52.4299" lon="21.1563">
    <ele>87.10000000000001</ele>
   </trkpt>
   <trkpt lat="52.42989000000001" lon="21.156010000000002">
    <ele>87.4</ele>
   </trkpt>
   <trkpt lat="52.429930000000006" lon="21.15587">
    <ele>87.4</ele>
   </trkpt>
   <trkpt lat="52.429950000000005" lon="21.15574">
    <ele>87.58</ele>
   </trkpt>
   <trkpt lat="52.43025" lon="21.155620000000003">
    <ele>87.77</ele>
   </trkpt>
   <trkpt lat="52.43041" lon="21.15527">
    <ele>87.74000000000001</ele>
   </trkpt>
   <trkpt lat="52.430690000000006" lon="21.154850000000003">
    <ele>87.95</ele>
   </trkpt>
   <trkpt lat="52.43119" lon="21.15426">
    <ele>88.62</ele>
   </trkpt>
   <trkpt lat="52.43175667307948" lon="21.153390022327958">
    <ele>87.89000000000001</ele>
   </trkpt>
   <trkpt lat="52.432323339774925" lon="21.15252002228417">
    <ele>87.25</ele>
   </trkpt>
   <trkpt lat="52.43289000000001" lon="21.15165">
    <ele>86.31000000000002</ele>
   </trkpt>
   <trkpt lat="52.43352334084318" lon="21.150706693773714">
    <ele>84.97</ele>
   </trkpt>
   <trkpt lat="52.43415667418089" lon="21.14976336043441">
    <ele>84.47</ele>
   </trkpt>
   <trkpt lat="52.43479000000001" lon="21.14882">
    <ele>85.03</ele>
   </trkpt>
   <trkpt lat="52.434870000000004" lon="21.14864">
    <ele>85.03</ele>
   </trkpt>
   <trkpt lat="52.435010000000005" lon="21.14843">
    <ele>85.12</ele>
   </trkpt>
   <trkpt lat="52.43517000000001" lon="21.14826">
    <ele>85.11</ele>
   </trkpt>
   <trkpt lat="52.43533000000001" lon="21.148030000000002">
    <ele>85.04</ele>
   </trkpt>
   <trkpt lat="52.4359628784927" lon="21.14711150772371">
    <ele>84.72</ele>
   </trkpt>
   <trkpt lat="52.436595749869774" lon="21.146192989064566">
    <ele>84.56</ele>
   </trkpt>
   <trkpt lat="52.43722861413083" lon="21.145274444021503">
    <ele>84.30000000000001</ele>
   </trkpt>
   <trkpt lat="52.437861471275525" lon="21.144355872593454">
    <ele>84.26</ele>
   </trkpt>
   <trkpt lat="52.438494321303494" lon="21.143437274779355">
    <ele>83.80000000000001</ele>
   </trkpt>
   <trkpt lat="52.439127164214355" lon="21.142518650578147">
    <ele>83.23</ele>
   </trkpt>
   <trkpt lat="52.43976000000001" lon="21.1416">
    <ele>82.68</ele>
   </trkpt>
   <trkpt lat="52.439910000000005" lon="21.141270000000002">
    <ele>82.37</ele>
   </trkpt>
   <trkpt lat="52.440000000000005" lon="21.14122">
    <ele>82.37</ele>
   </trkpt>
   <trkpt lat="52.44015" lon="21.14104">
    <ele>82.37</ele>
   </trkpt>
   <trkpt lat="52.44070667208183" lon="21.14024002019032">
    <ele>82.29</ele>
   </trkpt>
   <trkpt lat="52.44126333876608" lon="21.139440020165427">
    <ele>82.04</ele>
   </trkpt>
   <trkpt lat="52.44182000000001" lon="21.138640000000002">
    <ele>81.99000000000001</ele>
   </trkpt>
   <trkpt lat="52.442190000000004" lon="21.13811">
    <ele>81.98</ele>
   </trkpt>
   <trkpt lat="52.442370000000004" lon="21.13773">
    <ele>82.12</ele>
   </trkpt>
   <trkpt lat="52.44239" lon="21.137770000000003">
    <ele>82.12</ele>
   </trkpt>
   <trkpt lat="52.44249000000001" lon="21.137500000000003">
    <ele>82.19000000000001</ele>
   </trkpt>
   <trkpt lat="52.44257" lon="21.13756">
    <ele>82.19000000000001</ele>
   </trkpt>
   <trkpt lat="52.44261" lon="21.13756">
    <ele>82.19000000000001</ele>
   </trkpt>
   <trkpt lat="52.442640000000004" lon="21.13754">
    <ele>81.93</ele>
   </trkpt>
   <trkpt lat="52.44315" lon="21.136740000000003">
    <ele>81.93</ele>
   </trkpt>
   <trkpt lat="52.4435933378404" lon="21.13601001467152">
    <ele>82.24000000000001</ele>
   </trkpt>
   <trkpt lat="52.44403667118654" lon="21.135280014650633">
    <ele>82.62</ele>
   </trkpt>
   <trkpt lat="52.444480000000006" lon="21.13455">
    <ele>83.18</ele>
   </trkpt>
   <trkpt lat="52.44494" lon="21.135430000000003">
    <ele>83.19</ele>
   </trkpt>
   <trkpt lat="52.44511334794739" lon="21.13674665625562">
    <ele>83.44</ele>
   </trkpt>
   <trkpt lat="52.44528668127429" lon="21.138063322873165">
    <ele>83.75</ele>
   </trkpt>
   <trkpt lat="52.445460000000004" lon="21.139380000000003">
    <ele>84.5</ele>
   </trkpt>
   <trkpt lat="52.445286681293794" lon="21.138063323021264">
    <ele>83.75</ele>
   </trkpt>
   <trkpt lat="52.44511334796688" lon="21.136746656403723">
    <ele>83.44</ele>
   </trkpt>
   <trkpt lat="52.44494" lon="21.135430000000003">
    <ele>83.04</ele>
   </trkpt>
   <trkpt lat="52.444480000000006" lon="21.13455">
    <ele>83.18</ele>
   </trkpt>
   <trkpt lat="52.444036671148254" lon="21.13528001471368">
    <ele>82.58</ele>
   </trkpt>
   <trkpt lat="52.4435933378021" lon="21.136010014734566">
    <ele>82.24000000000001</ele>
   </trkpt>
   <trkpt lat="52.44315" lon="21.136740000000003">
    <ele>81.88000000000001</ele>
   </trkpt>
   <trkpt lat="52.442640000000004" lon="21.13754">
    <ele>82.19000000000001</ele>
   </trkpt>
   <trkpt lat="52.44261" lon="21.13756">
    <ele>82.19000000000001</ele>
   </trkpt>
   <trkpt lat="52.44257" lon="21.13756">
    <ele>82.19000000000001</ele>
   </trkpt>
   <trkpt lat="52.44249000000001" lon="21.137500000000003">
    <ele>82.29</ele>
   </trkpt>
   <trkpt lat="52.44239" lon="21.137770000000003">
    <ele>82.12</ele>
   </trkpt>
   <trkpt lat="52.442370000000004" lon="21.13773">
    <ele>82.12</ele>
   </trkpt>
   <trkpt lat="52.44239" lon="21.137770000000003">
    <ele>82.12</ele>
   </trkpt>
   <trkpt lat="52.44249000000001" lon="21.137500000000003">
    <ele>82.29</ele>
   </trkpt>
   <trkpt lat="52.44259" lon="21.137150000000002">
    <ele>82.33</ele>
   </trkpt>
   <trkpt lat="52.44267000000001" lon="21.136770000000002">
    <ele>82.39</ele>
   </trkpt>
   <trkpt lat="52.44285000000001" lon="21.13538">
    <ele>82.74000000000001</ele>
   </trkpt>
   <trkpt lat="52.44302228584587" lon="21.13400670962751">
    <ele>83.04</ele>
   </trkpt>
   <trkpt lat="52.44319455578614" lon="21.132633408514458">
    <ele>83.18</ele>
   </trkpt>
   <trkpt lat="52.44336680982059" lon="21.131260096661705">
    <ele>83.51</ele>
   </trkpt>
   <trkpt lat="52.443539047948995" lon="21.129886774070084">
    <ele>83.79</ele>
   </trkpt>
   <trkpt lat="52.44371127017115" lon="21.128513440740438">
    <ele>83.49000000000001</ele>
   </trkpt>
   <trkpt lat="52.443883476486825" lon="21.127140096673596">
    <ele>83.16000000000001</ele>
   </trkpt>
   <trkpt lat="52.44405566689578" lon="21.125766741870418">
    <ele>82.83</ele>
   </trkpt>
   <trkpt lat="52.44422784139781" lon="21.124393376331728">
    <ele>82.16000000000001</ele>
   </trkpt>
   <trkpt lat="52.4444" lon="21.12302">
    <ele>81.78</ele>
   </trkpt>
   <trkpt lat="52.444500000000005" lon="21.121920000000003">
    <ele>81.5</ele>
   </trkpt>
   <trkpt lat="52.44449" lon="21.1213">
    <ele>81.37</ele>
   </trkpt>
   <trkpt lat="52.44449" lon="21.121290000000002">
    <ele>81.37</ele>
   </trkpt>
   <trkpt lat="52.44446000000001" lon="21.12076">
    <ele>81.35000000000001</ele>
   </trkpt>
   <trkpt lat="52.44429" lon="21.119790000000002">
    <ele>81.14999999999999</ele>
   </trkpt>
   <trkpt lat="52.444061695613534" lon="21.11861830297998">
    <ele>81.05000000000001</ele>
   </trkpt>
   <trkpt lat="52.44383337964879" lon="21.11744661810467">
    <ele>81.45</ele>
   </trkpt>
   <trkpt lat="52.44360505210597" lon="21.116274945374467">
    <ele>81.81</ele>
   </trkpt>
   <trkpt lat="52.44337671298534" lon="21.115103284789775">
    <ele>81.79</ele>
   </trkpt>
   <trkpt lat="52.443148362287076" lon="21.11393163635097">
    <ele>81.73</ele>
   </trkpt>
   <trkpt lat="52.44292" lon="21.11276">
    <ele>81.80000000000001</ele>
   </trkpt>
   <trkpt lat="52.44296000000001" lon="21.112730000000003">
    <ele>81.80000000000001</ele>
   </trkpt>
   <trkpt lat="52.44277500261653" lon="21.111954997096415">
    <ele>81.52000000000001</ele>
   </trkpt>
   <trkpt lat="52.44259" lon="21.11118">
    <ele>81.39</ele>
   </trkpt>
   <trkpt lat="52.4425" lon="21.110460000000003">
    <ele>81.46000000000001</ele>
   </trkpt>
   <trkpt lat="52.442426679360835" lon="21.109233329311635">
    <ele>82.01</ele>
   </trkpt>
   <trkpt lat="52.442353346031176" lon="21.108006662706607">
    <ele>81.84</ele>
   </trkpt>
   <trkpt lat="52.442280000000004" lon="21.10678">
    <ele>81.80000000000001</ele>
   </trkpt>
   <trkpt lat="52.442220011348795" lon="21.10561999684465">
    <ele>82.04</ele>
   </trkpt>
   <trkpt lat="52.44216001134898" lon="21.104459996848586">
    <ele>82.32000000000001</ele>
   </trkpt>
   <trkpt lat="52.4421" lon="21.1033">
    <ele>82.02000000000001</ele>
   </trkpt>
   <trkpt lat="52.442036676081045" lon="21.102243330255284">
    <ele>81.75</ele>
   </trkpt>
   <trkpt lat="52.44197334274529" lon="21.101186663548347">
    <ele>81.48</ele>
   </trkpt>
   <trkpt lat="52.44191000000001" lon="21.10013">
    <ele>82.01</ele>
   </trkpt>
   <trkpt lat="52.44182000269945" lon="21.099324998058275">
    <ele>82.18</ele>
   </trkpt>
   <trkpt lat="52.44173000000001" lon="21.09852">
    <ele>82.01</ele>
   </trkpt>
   <trkpt lat="52.44173000000001" lon="21.09851">
    <ele>82.01</ele>
   </trkpt>
   <trkpt lat="52.44163000346687" lon="21.097604998064366">
    <ele>82.16000000000001</ele>
   </trkpt>
   <trkpt lat="52.44153000000001" lon="21.096700000000002">
    <ele>84.01</ele>
   </trkpt>
   <trkpt lat="52.441460000000006" lon="21.096400000000003">
    <ele>84.01</ele>
   </trkpt>
   <trkpt lat="52.44138" lon="21.09618">
    <ele>84.38000000000001</ele>
   </trkpt>
   <trkpt lat="52.4412" lon="21.0959">
    <ele>84.89</ele>
   </trkpt>
   <trkpt lat="52.44102" lon="21.09577">
    <ele>85.27000000000001</ele>
   </trkpt>
   <trkpt lat="52.440830000000005" lon="21.095730000000003">
    <ele>85.33</ele>
   </trkpt>
   <trkpt lat="52.44066" lon="21.095760000000002">
    <ele>85.27000000000001</ele>
   </trkpt>
   <trkpt lat="52.43994500054698" lon="21.096135006109584">
    <ele>84.66000000000001</ele>
   </trkpt>
   <trkpt lat="52.43923" lon="21.096510000000002">
    <ele>84.44</ele>
   </trkpt>
   <trkpt lat="52.438950000000006" lon="21.09662">
    <ele>84.42</ele>
   </trkpt>
   <trkpt lat="52.43873000000001" lon="21.09665">
    <ele>84.48000000000002</ele>
   </trkpt>
   <trkpt lat="52.43802" lon="21.09671">
    <ele>85.11</ele>
   </trkpt>
   <trkpt lat="52.437920000000005" lon="21.09666">
    <ele>85.06</ele>
   </trkpt>
   <trkpt lat="52.437780000000004" lon="21.09652">
    <ele>84.94</ele>
   </trkpt>
   <trkpt lat="52.437630000000006" lon="21.09619">
    <ele>84.46000000000001</ele>
   </trkpt>
   <trkpt lat="52.437560000000005" lon="21.09578">
    <ele>84.14</ele>
   </trkpt>
   <trkpt lat="52.43755" lon="21.09559">
    <ele>84.06</ele>
   </trkpt>
   <trkpt lat="52.437696725844425" lon="21.09426559083228">
    <ele>84.46000000000001</ele>
   </trkpt>
   <trkpt lat="52.43784343689468" lon="21.092941172844778">
    <ele>85.75</ele>
   </trkpt>
   <trkpt lat="52.437990133150606" lon="21.091616746038284">
    <ele>84.15</ele>
   </trkpt>
   <trkpt lat="52.43813681461201" lon="21.090292310413574">
    <ele>83.24000000000001</ele>
   </trkpt>
   <trkpt lat="52.438283481278724" lon="21.088967865971444">
    <ele>82.97</ele>
   </trkpt>
   <trkpt lat="52.43843013315057" lon="21.087643412712662">
    <ele>82.42</ele>
   </trkpt>
   <trkpt lat="52.438576770227364" lon="21.086318950638024">
    <ele>82.5</ele>
   </trkpt>
   <trkpt lat="52.43872339250893" lon="21.084994479748314">
    <ele>83.04</ele>
   </trkpt>
   <trkpt lat="52.43887" lon="21.08367">
    <ele>83.41000000000001</ele>
   </trkpt>
   <trkpt lat="52.43900602677836" lon="21.08241001556968">
    <ele>83.93</ele>
   </trkpt>
   <trkpt lat="52.43914204016701" lon="21.081150023360067">
    <ele>83.71000000000001</ele>
   </trkpt>
   <trkpt lat="52.439278040165824" lon="21.07989002337186">
    <ele>83.99000000000001</ele>
   </trkpt>
   <trkpt lat="52.439414026774614" lon="21.078630015605725">
    <ele>83.80000000000001</ele>
   </trkpt>
   <trkpt lat="52.439550000000004" lon="21.077370000000002">
    <ele>83.54</ele>
   </trkpt>
   <trkpt lat="52.43969500849253" lon="21.07595000477763">
    <ele>83.06</ele>
   </trkpt>
   <trkpt lat="52.439840000000004" lon="21.074530000000003">
    <ele>83.46000000000001</ele>
   </trkpt>
   <trkpt lat="52.43985000000001" lon="21.0741">
    <ele>83.4</ele>
   </trkpt>
   <trkpt lat="52.43978001805878" lon="21.07263666198818">
    <ele>83.14</ele>
   </trkpt>
   <trkpt lat="52.43971001805736" lon="21.071173328625452">
    <ele>83.4</ele>
   </trkpt>
   <trkpt lat="52.439640000000004" lon="21.06971">
    <ele>84.08</ele>
   </trkpt>
   <trkpt lat="52.43967000000001" lon="21.069360000000003">
    <ele>84.01</ele>
   </trkpt>
   <trkpt lat="52.439835615328874" lon="21.068028928913556">
    <ele>83.66000000000001</ele>
   </trkpt>
   <trkpt lat="52.440001215714666" lon="21.066697847820965">
    <ele>83.21000000000001</ele>
   </trkpt>
   <trkpt lat="52.44016680115717" lon="21.065366756722998">
    <ele>82.80000000000001</ele>
   </trkpt>
   <trkpt lat="52.4403323716562" lon="21.06403565562042">
    <ele>82.48</ele>
   </trkpt>
   <trkpt lat="52.440497927211524" lon="21.06270454451401">
    <ele>82.58</ele>
   </trkpt>
   <trkpt lat="52.44066346782295" lon="21.06137342340452">
    <ele>81.89</ele>
   </trkpt>
   <trkpt lat="52.4408289934903" lon="21.06004229229273">
    <ele>81.56</ele>
   </trkpt>
   <trkpt lat="52.44099450421333" lon="21.058711151179402">
    <ele>81.18</ele>
   </trkpt>
   <trkpt lat="52.44116" lon="21.057380000000002">
    <ele>81.38000000000001</ele>
   </trkpt>
   <trkpt lat="52.44134334978913" lon="21.055983344926506">
    <ele>80.99000000000001</ele>
   </trkpt>
   <trkpt lat="52.441526683126554" lon="21.054586678228937">
    <ele>81.05000000000001</ele>
   </trkpt>
   <trkpt lat="52.44171000000001" lon="21.05319">
    <ele>81.14999999999999</ele>
   </trkpt>
   <trkpt lat="52.441750000000006" lon="21.052870000000002">
    <ele>81.05000000000001</ele>
   </trkpt>
   <trkpt lat="52.441720000000004" lon="21.052850000000003">
    <ele>81.0</ele>
   </trkpt>
   <trkpt lat="52.44178" lon="21.052680000000002">
    <ele>80.36</ele>
   </trkpt>
   <trkpt lat="52.44187" lon="21.05263">
    <ele>80.38000000000001</ele>
   </trkpt>
   <trkpt lat="52.441900000000004" lon="21.05252">
    <ele>80.57000000000001</ele>
   </trkpt>
   <trkpt lat="52.441900000000004" lon="21.05244">
    <ele>80.57000000000001</ele>
   </trkpt>
   <trkpt lat="52.44187" lon="21.05235">
    <ele>80.63000000000001</ele>
   </trkpt>
   <trkpt lat="52.44180000000001" lon="21.052300000000002">
    <ele>80.63000000000001</ele>
   </trkpt>
   <trkpt lat="52.441700000000004" lon="21.051910000000003">
    <ele>79.92</ele>
   </trkpt>
   <trkpt lat="52.441660000000006" lon="21.05185">
    <ele>79.92</ele>
   </trkpt>
   <trkpt lat="52.44158" lon="21.051560000000002">
    <ele>79.77000000000001</ele>
   </trkpt>
   <trkpt lat="52.44135000000001" lon="21.051000000000002">
    <ele>79.58000000000001</ele>
   </trkpt>
   <trkpt lat="52.44097000000001" lon="21.05047">
    <ele>79.5</ele>
   </trkpt>
   <trkpt lat="52.441030000000005" lon="21.050340000000002">
    <ele>79.5</ele>
   </trkpt>
   <trkpt lat="52.440850000000005" lon="21.05008">
    <ele>78.4</ele>
   </trkpt>
   <trkpt lat="52.44044" lon="21.049570000000003">
    <ele>78.65</ele>
   </trkpt>
   <trkpt lat="52.44021000000001" lon="21.049390000000002">
    <ele>79.31</ele>
   </trkpt>
   <trkpt lat="52.439586672101996" lon="21.04858997741273">
    <ele>79.17999999999999</ele>
   </trkpt>
   <trkpt lat="52.43896333880603" lon="21.047789977461132">
    <ele>79.53999999999999</ele>
   </trkpt>
   <trkpt lat="52.438340000000004" lon="21.04699">
    <ele>79.78</ele>
   </trkpt>
   <trkpt lat="52.438230000000004" lon="21.04673">
    <ele>79.66000000000001</ele>
   </trkpt>
   <trkpt lat="52.43779000000001" lon="21.04614">
    <ele>79.66000000000001</ele>
   </trkpt>
   <trkpt lat="52.437580000000004" lon="21.04597">
    <ele>79.61</ele>
   </trkpt>
   <trkpt lat="52.437960000000004" lon="21.045450000000002">
    <ele>79.29</ele>
   </trkpt>
   <trkpt lat="52.43818" lon="21.045080000000002">
    <ele>79.16000000000001</ele>
   </trkpt>
   <trkpt lat="52.438370000000006" lon="21.044680000000003">
    <ele>79.33000000000001</ele>
   </trkpt>
   <trkpt lat="52.438610000000004" lon="21.04429">
    <ele>79.37</ele>
   </trkpt>
   <trkpt lat="52.43869" lon="21.04419">
    <ele>79.52000000000001</ele>
   </trkpt>
   <trkpt lat="52.438880000000005" lon="21.044040000000003">
    <ele>79.60000000000001</ele>
   </trkpt>
   <trkpt lat="52.4391" lon="21.044">
    <ele>79.55000000000001</ele>
   </trkpt>
   <trkpt lat="52.43925" lon="21.044040000000003">
    <ele>79.55000000000001</ele>
   </trkpt>
   <trkpt lat="52.439820000000005" lon="21.044140000000002">
    <ele>79.4</ele>
   </trkpt>
   <trkpt lat="52.44037499995291" lon="21.044204999173616">
    <ele>79.65</ele>
   </trkpt>
   <trkpt lat="52.44093" lon="21.04427">
    <ele>80.02000000000001</ele>
   </trkpt>
   <trkpt lat="52.441010000000006" lon="21.044330000000002">
    <ele>80.17</ele>
   </trkpt>
   <trkpt lat="52.44113" lon="21.044500000000003">
    <ele>80.2</ele>
   </trkpt>
   <trkpt lat="52.44113" lon="21.044490000000003">
    <ele>80.21000000000001</ele>
   </trkpt>
   <trkpt lat="52.4412" lon="21.044590000000003">
    <ele>80.08000000000001</ele>
   </trkpt>
   <trkpt lat="52.441250000000004" lon="21.044800000000002">
    <ele>79.39</ele>
   </trkpt>
   <trkpt lat="52.441230000000004" lon="21.04503">
    <ele>79.31</ele>
   </trkpt>
   <trkpt lat="52.441100000000006" lon="21.04548">
    <ele>80.13000000000001</ele>
   </trkpt>
   <trkpt lat="52.44111" lon="21.04557">
    <ele>80.13000000000001</ele>
   </trkpt>
   <trkpt lat="52.44113" lon="21.045620000000003">
    <ele>80.13000000000001</ele>
   </trkpt>
   <trkpt lat="52.441480000000006" lon="21.045920000000002">
    <ele>80.03999999999999</ele>
   </trkpt>
   <trkpt lat="52.44158" lon="21.04604">
    <ele>80.03</ele>
   </trkpt>
   <trkpt lat="52.44183" lon="21.04622">
    <ele>79.83000000000001</ele>
   </trkpt>
   <trkpt lat="52.44196" lon="21.04635">
    <ele>79.60000000000001</ele>
   </trkpt>
   <trkpt lat="52.44211000000001" lon="21.04641">
    <ele>79.53999999999999</ele>
   </trkpt>
   <trkpt lat="52.4427525053132" lon="21.04705997152934">
    <ele>79.05000000000001</ele>
   </trkpt>
   <trkpt lat="52.44339500706333" lon="21.047709962017223">
    <ele>79.05000000000001</ele>
   </trkpt>
   <trkpt lat="52.4440375052502" lon="21.048359971464528">
    <ele>79.37</ele>
   </trkpt>
   <trkpt lat="52.444680000000005" lon="21.049010000000003">
    <ele>79.74000000000001</ele>
   </trkpt>
   <trkpt lat="52.44467" lon="21.049010000000003">
    <ele>79.74000000000001</ele>
   </trkpt>
   <trkpt lat="52.44534500988563" lon="21.04969494751086">
    <ele>79.80000000000001</ele>
   </trkpt>
   <trkpt lat="52.446020015814504" lon="21.050379916013156">
    <ele>79.53</ele>
   </trkpt>
   <trkpt lat="52.44669501778638" lon="21.051064905507918">
    <ele>79.31</ele>
   </trkpt>
   <trkpt lat="52.447370015801056" lon="21.051749915996176">
    <ele>79.21000000000001</ele>
   </trkpt>
   <trkpt lat="52.448045009858326" lon="21.052434947478968">
    <ele>79.23</ele>
   </trkpt>
   <trkpt lat="52.44872" lon="21.053120000000003">
    <ele>79.2</ele>
   </trkpt>
   <trkpt lat="52.449000000000005" lon="21.05347">
    <ele>79.13000000000001</ele>
   </trkpt>
   <trkpt lat="52.449250000000006" lon="21.05386">
    <ele>78.92999999999999</ele>
   </trkpt>
   <trkpt lat="52.449470000000005" lon="21.05431">
    <ele>78.92999999999999</ele>
   </trkpt>
   <trkpt lat="52.44964" lon="21.05477">
    <ele>78.84</ele>
   </trkpt>
   <trkpt lat="52.44979000000001" lon="21.055320000000002">
    <ele>78.88000000000001</ele>
   </trkpt>
   <trkpt lat="52.44993" lon="21.05618">
    <ele>78.78</ele>
   </trkpt>
   <trkpt lat="52.449960000000004" lon="21.056540000000002">
    <ele>78.78</ele>
   </trkpt>
   <trkpt lat="52.44997000000001" lon="21.057000000000002">
    <ele>78.80000000000001</ele>
   </trkpt>
   <trkpt lat="52.45" lon="21.0579">
    <ele>78.86</ele>
   </trkpt>
   <trkpt lat="52.449830000000006" lon="21.05787">
    <ele>78.37</ele>
   </trkpt>
   <trkpt lat="52.449136666715724" lon="21.057786664041977">
    <ele>77.63000000000001</ele>
   </trkpt>
   <trkpt lat="52.44844333337287" lon="21.05770333070755">
    <ele>77.63000000000001</ele>
   </trkpt>
   <trkpt lat="52.447750000000006" lon="21.05762">
    <ele>77.87</ele>
   </trkpt>
   <trkpt lat="52.44767" lon="21.057650000000002">
    <ele>77.87</ele>
   </trkpt>
   <trkpt lat="52.4476" lon="21.057760000000002">
    <ele>78.30000000000001</ele>
   </trkpt>
   <trkpt lat="52.447680000000005" lon="21.057850000000002">
    <ele>78.23</ele>
   </trkpt>
   <trkpt lat="52.44776" lon="21.05797">
    <ele>78.23</ele>
   </trkpt>
   <trkpt lat="52.447860000000006" lon="21.058190000000003">
    <ele>78.25</ele>
   </trkpt>
   <trkpt lat="52.44791000000001" lon="21.05814">
    <ele>78.32</ele>
   </trkpt>
   <trkpt lat="52.448170000000005" lon="21.058670000000003">
    <ele>78.95</ele>
   </trkpt>
   <trkpt lat="52.448240000000006" lon="21.0589">
    <ele>79.03</ele>
   </trkpt>
   <trkpt lat="52.44881" lon="21.05983">
    <ele>79.10000000000001</ele>
   </trkpt>
   <trkpt lat="52.44888" lon="21.060010000000002">
    <ele>79.30000000000001</ele>
   </trkpt>
   <trkpt lat="52.449000000000005" lon="21.060920000000003">
    <ele>79.62</ele>
   </trkpt>
   <trkpt lat="52.449000000000005" lon="21.060910000000003">
    <ele>79.62</ele>
   </trkpt>
   <trkpt lat="52.449130000000004" lon="21.061780000000002">
    <ele>79.66000000000001</ele>
   </trkpt>
   <trkpt lat="52.449395004742925" lon="21.062834993850434">
    <ele>80.31</ele>
   </trkpt>
   <trkpt lat="52.44966" lon="21.06389">
    <ele>79.96000000000001</ele>
   </trkpt>
   <trkpt lat="52.45015000000001" lon="21.06475">
    <ele>79.62</ele>
   </trkpt>
   <trkpt lat="52.45011" lon="21.06482">
    <ele>79.56</ele>
   </trkpt>
   <trkpt lat="52.45008000000001" lon="21.064870000000003">
    <ele>79.56</ele>
   </trkpt>
   <trkpt lat="52.450230000000005" lon="21.065140000000003">
    <ele>78.92</ele>
   </trkpt>
   <trkpt lat="52.450605002771354" lon="21.065959992878522">
    <ele>78.25</ele>
   </trkpt>
   <trkpt lat="52.45098" lon="21.06678">
    <ele>78.26</ele>
   </trkpt>
   <trkpt lat="52.45112" lon="21.067010000000003">
    <ele>78.55000000000001</ele>
   </trkpt>
   <trkpt lat="52.451690000000006" lon="21.067770000000003">
    <ele>79.39</ele>
   </trkpt>
   <trkpt lat="52.451820000000005" lon="21.068">
    <ele>79.41000000000001</ele>
   </trkpt>
   <trkpt lat="52.45221000280521" lon="21.06881499279217">
    <ele>79.22000000000001</ele>
   </trkpt>
   <trkpt lat="52.452600000000004" lon="21.06963">
    <ele>78.84</ele>
   </trkpt>
   <trkpt lat="52.452670000000005" lon="21.06972">
    <ele>79.13000000000001</ele>
   </trkpt>
   <trkpt lat="52.45270000000001" lon="21.069660000000002">
    <ele>79.13000000000001</ele>
   </trkpt>
   <trkpt lat="52.45302" lon="21.07018">
    <ele>79.02000000000001</ele>
   </trkpt>
   <trkpt lat="52.45309" lon="21.07016">
    <ele>79.10000000000001</ele>
   </trkpt>
   <trkpt lat="52.45358" lon="21.07094">
    <ele>78.80000000000001</ele>
   </trkpt>
   <trkpt lat="52.45421" lon="21.07187">
    <ele>79.22000000000001</ele>
   </trkpt>
   <trkpt lat="52.45476000000001" lon="21.072550000000003">
    <ele>79.04</ele>
   </trkpt>
   <trkpt lat="52.45539" lon="21.073150000000002">
    <ele>78.83000000000001</ele>
   </trkpt>
   <trkpt lat="52.455740000000006" lon="21.07345">
    <ele>78.81</ele>
   </trkpt>
   <trkpt lat="52.456210000000006" lon="21.07382">
    <ele>79.22000000000001</ele>
   </trkpt>
   <trkpt lat="52.45644000000001" lon="21.073880000000003">
    <ele>79.55000000000001</ele>
   </trkpt>
   <trkpt lat="52.456520000000005" lon="21.07392">
    <ele>79.60000000000001</ele>
   </trkpt>
   <trkpt lat="52.45665" lon="21.0741">
    <ele>79.67</ele>
   </trkpt>
   <trkpt lat="52.45669" lon="21.074180000000002">
    <ele>79.67</ele>
   </trkpt>
   <trkpt lat="52.456920000000004" lon="21.074430000000003">
    <ele>79.67</ele>
   </trkpt>
   <trkpt lat="52.457350000000005" lon="21.07495">
    <ele>79.7</ele>
   </trkpt>
   <trkpt lat="52.45790000120523" lon="21.075499993059726">
    <ele>79.73</ele>
   </trkpt>
   <trkpt lat="52.458450000000006" lon="21.076050000000002">
    <ele>79.71000000000001</ele>
   </trkpt>
   <trkpt lat="52.459075001437895" lon="21.076619991970908">
    <ele>79.02000000000001</ele>
   </trkpt>
   <trkpt lat="52.459700000000005" lon="21.07719">
    <ele>79.04</ele>
   </trkpt>
   <trkpt lat="52.46014000087811" lon="21.077639995527733">
    <ele>79.92</ele>
   </trkpt>
   <trkpt lat="52.46058000000001" lon="21.078090000000003">
    <ele>82.16000000000001</ele>
   </trkpt>
   <trkpt lat="52.46072" lon="21.07826">
    <ele>82.43</ele>
   </trkpt>
   <trkpt lat="52.46105000000001" lon="21.078770000000002">
    <ele>82.95</ele>
   </trkpt>
   <trkpt lat="52.4611" lon="21.07879">
    <ele>83.01</ele>
   </trkpt>
   <trkpt lat="52.46135" lon="21.078500000000002">
    <ele>83.32000000000001</ele>
   </trkpt>
   <trkpt lat="52.461380000000005" lon="21.078490000000002">
    <ele>83.32000000000001</ele>
   </trkpt>
   <trkpt lat="52.46193000380226" lon="21.077820016719752">
    <ele>84.31</ele>
   </trkpt>
   <trkpt lat="52.46248000381935" lon="21.07715001669921">
    <ele>82.19000000000001</ele>
   </trkpt>
   <trkpt lat="52.46303" lon="21.07648">
    <ele>81.64</ele>
   </trkpt>
   <trkpt lat="52.46363" lon="21.07573">
    <ele>82.60000000000001</ele>
   </trkpt>
   <trkpt lat="52.46394" lon="21.07531">
    <ele>82.19000000000001</ele>
   </trkpt>
   <trkpt lat="52.46401" lon="21.07524">
    <ele>82.03</ele>
   </trkpt>
   <trkpt lat="52.464110000000005" lon="21.075190000000003">
    <ele>81.5</ele>
   </trkpt>
   <trkpt lat="52.464270000000006" lon="21.074930000000002">
    <ele>80.78</ele>
   </trkpt>
   <trkpt lat="52.46463500084619" lon="21.07450000348686">
    <ele>80.55000000000001</ele>
   </trkpt>
   <trkpt lat="52.465" lon="21.074070000000003">
    <ele>82.17</ele>
   </trkpt>
   <trkpt lat="52.46468000258749" lon="21.073299994613908">
    <ele>82.21000000000001</ele>
   </trkpt>
   <trkpt lat="52.464360000000006" lon="21.07253">
    <ele>83.01</ele>
   </trkpt>
   <trkpt lat="52.46439" lon="21.072280000000003">
    <ele>83.01</ele>
   </trkpt>
   <trkpt lat="52.46421" lon="21.071440000000003">
    <ele>82.92</ele>
   </trkpt>
   <trkpt lat="52.463730000000005" lon="21.071720000000003">
    <ele>81.45</ele>
   </trkpt>
   <trkpt lat="52.46367000000001" lon="21.071630000000003">
    <ele>81.29</ele>
   </trkpt>
   <trkpt lat="52.46334334152908" lon="21.070643318650855">
    <ele>79.99000000000001</ele>
   </trkpt>
   <trkpt lat="52.46301667484921" lon="21.069656651944534">
    <ele>78.46</ele>
   </trkpt>
   <trkpt lat="52.46269" lon="21.06867">
    <ele>77.84</ele>
   </trkpt>
   <trkpt lat="52.462630000000004" lon="21.06809">
    <ele>77.91000000000001</ele>
   </trkpt>
   <trkpt lat="52.462700000000005" lon="21.06782">
    <ele>79.45</ele>
   </trkpt>
   <trkpt lat="52.463480000000004" lon="21.067580000000003">
    <ele>79.52000000000001</ele>
   </trkpt>
   <trkpt lat="52.464315000394684" lon="21.067290005486814">
    <ele>79.47000000000001</ele>
   </trkpt>
   <trkpt lat="52.46515" lon="21.067">
    <ele>79.53</ele>
   </trkpt>
   <trkpt lat="52.46515" lon="21.067010000000003">
    <ele>79.53</ele>
   </trkpt>
   <trkpt lat="52.46584500065855" lon="21.066777511021087">
    <ele>79.47000000000001</ele>
   </trkpt>
   <trkpt lat="52.4665400008613" lon="21.066545014700672">
    <ele>79.25</ele>
   </trkpt>
   <trkpt lat="52.467235000608255" lon="21.066312511038333">
    <ele>79.24000000000001</ele>
   </trkpt>
   <trkpt lat="52.46793" lon="21.066080000000003">
    <ele>79.38000000000001</ele>
   </trkpt>
   <trkpt lat="52.468590000000006" lon="21.065910000000002">
    <ele>79.41000000000001</ele>
   </trkpt>
   <trkpt lat="52.469480000000004" lon="21.06584">
    <ele>79.16000000000001</ele>
   </trkpt>
   <trkpt lat="52.46998000000001" lon="21.065910000000002">
    <ele>79.09</ele>
   </trkpt>
   <trkpt lat="52.4705" lon="21.06604">
    <ele>78.94000000000001</ele>
   </trkpt>
   <trkpt lat="52.47128333399932" lon="21.066323323243324">
    <ele>78.99000000000001</ele>
   </trkpt>
   <trkpt lat="52.47206666732179" lon="21.066606656572514">
    <ele>78.59</ele>
   </trkpt>
   <trkpt lat="52.47285" lon="21.06689">
    <ele>78.26</ele>
   </trkpt>
   <trkpt lat="52.473310000000005" lon="21.06709">
    <ele>78.59</ele>
   </trkpt>
   <trkpt lat="52.47377" lon="21.06726">
    <ele>78.42</ele>
   </trkpt>
   <trkpt lat="52.47401000000001" lon="21.067410000000002">
    <ele>78.45</ele>
   </trkpt>
   <trkpt lat="52.47428000000001" lon="21.06763">
    <ele>78.4</ele>
   </trkpt>
   <trkpt lat="52.474450000000004" lon="21.06781">
    <ele>78.41000000000001</ele>
   </trkpt>
   <trkpt lat="52.474450000000004" lon="21.067800000000002">
    <ele>78.41000000000001</ele>
   </trkpt>
   <trkpt lat="52.47466000000001" lon="21.068080000000002">
    <ele>78.48</ele>
   </trkpt>
   <trkpt lat="52.474940000000004" lon="21.06859">
    <ele>78.55000000000001</ele>
   </trkpt>
   <trkpt lat="52.475080000000005" lon="21.06894">
    <ele>78.59</ele>
   </trkpt>
   <trkpt lat="52.475280000000005" lon="21.06962">
    <ele>78.64</ele>
   </trkpt>
   <trkpt lat="52.47536" lon="21.070140000000002">
    <ele>78.79</ele>
   </trkpt>
   <trkpt lat="52.47551252203254" lon="21.071459986248133">
    <ele>79.31</ele>
   </trkpt>
   <trkpt lat="52.47566502937472" lon="21.072779981646345">
    <ele>79.07</ele>
   </trkpt>
   <trkpt lat="52.47581752202636" lon="21.074099986193882">
    <ele>78.9</ele>
   </trkpt>
   <trkpt lat="52.475970000000004" lon="21.07542">
    <ele>79.01</ele>
   </trkpt>
   <trkpt lat="52.47603" lon="21.075680000000002">
    <ele>79.01</ele>
   </trkpt>
   <trkpt lat="52.476290000000006" lon="21.07645">
    <ele>79.05000000000001</ele>
   </trkpt>
   <trkpt lat="52.47637" lon="21.07685">
    <ele>79.23</ele>
   </trkpt>
   <trkpt lat="52.47648" lon="21.07757">
    <ele>79.03</ele>
   </trkpt>
   <trkpt lat="52.476510000000005" lon="21.077990000000003">
    <ele>78.98</ele>
   </trkpt>
   <trkpt lat="52.476490000000005" lon="21.07863">
    <ele>78.97000000000001</ele>
   </trkpt>
   <trkpt lat="52.47643000000001" lon="21.07926">
    <ele>78.99000000000001</ele>
   </trkpt>
   <trkpt lat="52.476290000000006" lon="21.080260000000003">
    <ele>79.10000000000001</ele>
   </trkpt>
   <trkpt lat="52.4763" lon="21.0808">
    <ele>79.01</ele>
   </trkpt>
   <trkpt lat="52.47639" lon="21.08127">
    <ele>79.04</ele>
   </trkpt>
   <trkpt lat="52.476870000000005" lon="21.082400000000003">
    <ele>78.91000000000001</ele>
   </trkpt>
   <trkpt lat="52.47708" lon="21.082990000000002">
    <ele>78.95</ele>
   </trkpt>
   <trkpt lat="52.477160000000005" lon="21.08331">
    <ele>78.91000000000001</ele>
   </trkpt>
   <trkpt lat="52.477270000000004" lon="21.08405">
    <ele>78.92999999999999</ele>
   </trkpt>
   <trkpt lat="52.47726" lon="21.08452">
    <ele>79.05000000000001</ele>
   </trkpt>
   <trkpt lat="52.477250000000005" lon="21.08473">
    <ele>79.0</ele>
   </trkpt>
   <trkpt lat="52.47717" lon="21.085230000000003">
    <ele>78.86</ele>
   </trkpt>
   <trkpt lat="52.47690000000001" lon="21.08623">
    <ele>78.55000000000001</ele>
   </trkpt>
   <trkpt lat="52.47683000000001" lon="21.08668">
    <ele>78.55000000000001</ele>
   </trkpt>
   <trkpt lat="52.47671001552673" lon="21.088036673966474">
    <ele>78.42</ele>
   </trkpt>
   <trkpt lat="52.47659001553551" lon="21.089393340533675">
    <ele>78.33000000000001</ele>
   </trkpt>
   <trkpt lat="52.476470000000006" lon="21.090750000000003">
    <ele>78.11000000000001</ele>
   </trkpt>
   <trkpt lat="52.476490000000005" lon="21.091250000000002">
    <ele>78.12</ele>
   </trkpt>
   <trkpt lat="52.476490000000005" lon="21.091230000000003">
    <ele>78.12</ele>
   </trkpt>
   <trkpt lat="52.476560000000006" lon="21.092380000000002">
    <ele>78.47000000000001</ele>
   </trkpt>
   <trkpt lat="52.476530000000004" lon="21.092630000000003">
    <ele>78.86</ele>
   </trkpt>
   <trkpt lat="52.476000000000006" lon="21.09268">
    <ele>77.80000000000001</ele>
   </trkpt>
   <trkpt lat="52.475620000000006" lon="21.092640000000003">
    <ele>77.44000000000001</ele>
   </trkpt>
   <trkpt lat="52.47525" lon="21.092560000000002">
    <ele>77.46</ele>
   </trkpt>
   <trkpt lat="52.474520000397376" lon="21.092407989915614">
    <ele>77.42</ele>
   </trkpt>
   <trkpt lat="52.47379000059993" lon="21.092255984874523">
    <ele>77.75</ele>
   </trkpt>
   <trkpt lat="52.47306000060768" lon="21.092103984876438">
    <ele>77.9</ele>
   </trkpt>
   <trkpt lat="52.47233000042063" lon="21.09195198992106">
    <ele>78.06</ele>
   </trkpt>
   <trkpt lat="52.4716" lon="21.091800000000003">
    <ele>78.60000000000001</ele>
   </trkpt>
   <trkpt lat="52.47119000000001" lon="21.091700000000003">
    <ele>79.01</ele>
   </trkpt>
   <trkpt lat="52.47101000000001" lon="21.091630000000002">
    <ele>79.28</ele>
   </trkpt>
   <trkpt lat="52.470760000000006" lon="21.091420000000003">
    <ele>79.51</ele>
   </trkpt>
   <trkpt lat="52.470780000000005" lon="21.09168">
    <ele>79.34</ele>
   </trkpt>
   <trkpt lat="52.470690000000005" lon="21.09166">
    <ele>80.44000000000001</ele>
   </trkpt>
   <trkpt lat="52.47039" lon="21.0923">
    <ele>82.43</ele>
   </trkpt>
   <trkpt lat="52.469610000193136" lon="21.092530004084885">
    <ele>84.16000000000001</ele>
   </trkpt>
   <trkpt lat="52.468830000000004" lon="21.092760000000002">
    <ele>82.37</ele>
   </trkpt>
   <trkpt lat="52.46891" lon="21.093200000000003">
    <ele>82.04</ele>
   </trkpt>
   <trkpt lat="52.46909" lon="21.093890000000002">
    <ele>81.03</ele>
   </trkpt>
   <trkpt lat="52.469210000000004" lon="21.0942">
    <ele>79.95</ele>
   </trkpt>
   <trkpt lat="52.46895000000001" lon="21.094330000000003">
    <ele>79.74000000000001</ele>
   </trkpt>
   <trkpt lat="52.468650000000004" lon="21.0944">
    <ele>80.03999999999999</ele>
   </trkpt>
   <trkpt lat="52.468500000000006" lon="21.09438">
    <ele>80.16000000000001</ele>
   </trkpt>
   <trkpt lat="52.468320000000006" lon="21.09429">
    <ele>80.2</ele>
   </trkpt>
   <trkpt lat="52.468180000000004" lon="21.0941">
    <ele>80.52000000000001</ele>
   </trkpt>
   <trkpt lat="52.46791" lon="21.093570000000003">
    <ele>80.56</ele>
   </trkpt>
   <trkpt lat="52.467780000000005" lon="21.09335">
    <ele>80.22</ele>
   </trkpt>
   <trkpt lat="52.46729000086602" lon="21.092854994320895">
    <ele>80.97</ele>
   </trkpt>
   <trkpt lat="52.466800000000006" lon="21.092360000000003">
    <ele>81.54</ele>
   </trkpt>
   <trkpt lat="52.466370000000005" lon="21.091980000000003">
    <ele>81.48</ele>
   </trkpt>
   <trkpt lat="52.46623" lon="21.091810000000002">
    <ele>81.59</ele>
   </trkpt>
   <trkpt lat="52.46585" lon="21.091130000000003">
    <ele>82.5</ele>
   </trkpt>
   <trkpt lat="52.46551" lon="21.09074">
    <ele>83.35000000000001</ele>
   </trkpt>
   <trkpt lat="52.465" lon="21.08986">
    <ele>83.74000000000001</ele>
   </trkpt>
   <trkpt lat="52.464710000000004" lon="21.08942">
    <ele>84.28</ele>
   </trkpt>
   <trkpt lat="52.46414000000001" lon="21.088820000000002">
    <ele>82.94000000000001</ele>
   </trkpt>
   <trkpt lat="52.46385" lon="21.08866">
    <ele>82.76</ele>
   </trkpt>
   <trkpt lat="52.46307" lon="21.088520000000003">
    <ele>82.04</ele>
   </trkpt>
   <trkpt lat="52.46282000000001" lon="21.08839">
    <ele>82.14</ele>
   </trkpt>
   <trkpt lat="52.462680000000006" lon="21.088240000000003">
    <ele>81.9</ele>
   </trkpt>
   <trkpt lat="52.462410000000006" lon="21.088260000000002">
    <ele>81.47</ele>
   </trkpt>
   <trkpt lat="52.46197" lon="21.08847">
    <ele>82.38000000000001</ele>
   </trkpt>
   <trkpt lat="52.46155" lon="21.088590000000003">
    <ele>83.36</ele>
   </trkpt>
   <trkpt lat="52.46081" lon="21.08874">
    <ele>84.34</ele>
   </trkpt>
   <trkpt lat="52.45993199999958" lon="21.088717998244935">
    <ele>83.76</ele>
   </trkpt>
   <trkpt lat="52.459053999995064" lon="21.08869599736736">
    <ele>82.53</ele>
   </trkpt>
   <trkpt lat="52.45817599998648" lon="21.088673997367202">
    <ele>82.25</ele>
   </trkpt>
   <trkpt lat="52.45729799997383" lon="21.088651998244416">
    <ele>82.02000000000001</ele>
   </trkpt>
   <trkpt lat="52.45642" lon="21.088630000000002">
    <ele>82.4</ele>
   </trkpt>
   <trkpt lat="52.45582" lon="21.08873">
    <ele>84.01</ele>
   </trkpt>
   <trkpt lat="52.455960007973225" lon="21.090104995644538">
    <ele>84.37</ele>
   </trkpt>
   <trkpt lat="52.456100000000006" lon="21.09148">
    <ele>86.11</ele>
   </trkpt>
   <trkpt lat="52.45623668392123" lon="21.09290999123341">
    <ele>85.25</ele>
   </trkpt>
   <trkpt lat="52.456373350598476" lon="21.094339991343787">
    <ele>85.62</ele>
   </trkpt>
   <trkpt lat="52.45651" lon="21.09577">
    <ele>85.77000000000001</ele>
   </trkpt>
   <trkpt lat="52.45642" lon="21.09607">
    <ele>85.39</ele>
   </trkpt>
   <trkpt lat="52.456544025020605" lon="21.097287986284716">
    <ele>85.48</ele>
   </trkpt>
   <trkpt lat="52.4566680375313" lon="21.09850597943025">
    <ele>85.48</ele>
   </trkpt>
   <trkpt lat="52.45679203753194" lon="21.099723979435986">
    <ele>85.89</ele>
   </trkpt>
   <trkpt lat="52.45691602502242" lon="21.100941986301294">
    <ele>85.54</ele>
   </trkpt>
   <trkpt lat="52.457040000000006" lon="21.10216">
    <ele>85.63000000000001</ele>
   </trkpt>
   <trkpt lat="52.45616833431147" lon="21.102376688113992">
    <ele>86.01</ele>
   </trkpt>
   <trkpt lat="52.45529666822702" lon="21.1025933676494">
    <ele>86.88000000000001</ele>
   </trkpt>
   <trkpt lat="52.45442500174665" lon="21.10281003860683">
    <ele>88.48</ele>
   </trkpt>
   <trkpt lat="52.4535533348704" lon="21.103026700986888">
    <ele>88.86000000000001</ele>
   </trkpt>
   <trkpt lat="52.45268166759833" lon="21.103243354790177">
    <ele>87.95</ele>
   </trkpt>
   <trkpt lat="52.45181" lon="21.103460000000002">
    <ele>87.57000000000001</ele>
   </trkpt>
   <trkpt lat="52.451690000000006" lon="21.104460000000003">
    <ele>86.02000000000001</ele>
   </trkpt>
   <trkpt lat="52.45180752408876" lon="21.105839988941455">
    <ele>85.23</ele>
   </trkpt>
   <trkpt lat="52.45192503211773" lon="21.10721998524743">
    <ele>84.51</ele>
   </trkpt>
   <trkpt lat="52.45204252408676" lon="21.108599988917">
    <ele>83.98000000000002</ele>
   </trkpt>
   <trkpt lat="52.452160000000006" lon="21.10998">
    <ele>83.52000000000001</ele>
   </trkpt>
   <trkpt lat="52.452180000000006" lon="21.110290000000003">
    <ele>83.65</ele>
   </trkpt>
   <trkpt lat="52.452180000000006" lon="21.11089">
    <ele>83.88000000000001</ele>
   </trkpt>
   <trkpt lat="52.452016678612914" lon="21.112080008796287">
    <ele>84.60000000000001</ele>
   </trkpt>
   <trkpt lat="52.451853345283695" lon="21.113270008766214">
    <ele>84.47</ele>
   </trkpt>
   <trkpt lat="52.451690000000006" lon="21.11446">
    <ele>84.04</ele>
   </trkpt>
   <trkpt lat="52.45170334187761" lon="21.11546666593338">
    <ele>84.13000000000001</ele>
   </trkpt>
   <trkpt lat="52.4517166752093" lon="21.116473332476474">
    <ele>84.23000000000002</ele>
   </trkpt>
   <trkpt lat="52.451730000000005" lon="21.11748">
    <ele>84.16000000000001</ele>
   </trkpt>
   <trkpt lat="52.45172334751269" lon="21.118776666974636">
    <ele>83.75</ele>
   </trkpt>
   <trkpt lat="52.45171668084647" lon="21.120073333557123">
    <ele>83.66000000000001</ele>
   </trkpt>
   <trkpt lat="52.451710000000006" lon="21.121370000000002">
    <ele>83.77000000000001</ele>
   </trkpt>
   <trkpt lat="52.45158500406997" lon="21.1223500026216">
    <ele>83.30000000000001</ele>
   </trkpt>
   <trkpt lat="52.451460000000004" lon="21.123330000000003">
    <ele>82.28</ele>
   </trkpt>
   <trkpt lat="52.45141" lon="21.12413">
    <ele>82.26</ele>
   </trkpt>
   <trkpt lat="52.451010000000004" lon="21.124850000000002">
    <ele>82.87</ele>
   </trkpt>
   <trkpt lat="52.450680000000006" lon="21.125660000000003">
    <ele>83.31</ele>
   </trkpt>
   <trkpt lat="52.45047" lon="21.12612">
    <ele>83.10000000000001</ele>
   </trkpt>
   <trkpt lat="52.45009" lon="21.12667">
    <ele>82.80000000000001</ele>
   </trkpt>
   <trkpt lat="52.44943000000001" lon="21.127280000000003">
    <ele>82.18</ele>
   </trkpt>
   <trkpt lat="52.44899" lon="21.127630000000003">
    <ele>82.14</ele>
   </trkpt>
   <trkpt lat="52.448910000000005" lon="21.127380000000002">
    <ele>82.14</ele>
   </trkpt>
   <trkpt lat="52.44863" lon="21.12705">
    <ele>82.14</ele>
   </trkpt>
   <trkpt lat="52.44852" lon="21.12697">
    <ele>82.14</ele>
   </trkpt>
   <trkpt lat="52.447860000000006" lon="21.12685">
    <ele>89.75000000000001</ele>
   </trkpt>
   <trkpt lat="52.44755000000001" lon="21.126880000000003">
    <ele>89.75000000000001</ele>
   </trkpt>
   <trkpt lat="52.44731" lon="21.127000000000002">
    <ele>89.75000000000001</ele>
   </trkpt>
   <trkpt lat="52.4472" lon="21.127010000000002">
    <ele>89.69</ele>
   </trkpt>
   <trkpt lat="52.44709" lon="21.126980000000003">
    <ele>89.69</ele>
   </trkpt>
   <trkpt lat="52.44702" lon="21.126910000000002">
    <ele>89.69</ele>
   </trkpt>
   <trkpt lat="52.44690000000001" lon="21.12734">
    <ele>89.59</ele>
   </trkpt>
   <trkpt lat="52.44662" lon="21.12798">
    <ele>88.03000000000002</ele>
   </trkpt>
   <trkpt lat="52.44652000000001" lon="21.128310000000003">
    <ele>87.32000000000001</ele>
   </trkpt>
   <trkpt lat="52.44648" lon="21.128570000000003">
    <ele>87.0</ele>
   </trkpt>
   <trkpt lat="52.44622500454031" lon="21.12960500589727">
    <ele>86.47</ele>
   </trkpt>
   <trkpt lat="52.44597" lon="21.130640000000003">
    <ele>85.61</ele>
   </trkpt>
   <trkpt lat="52.445820000000005" lon="21.131130000000002">
    <ele>85.09000000000002</ele>
   </trkpt>
   <trkpt lat="52.445750000000004" lon="21.13154">
    <ele>84.29</ele>
   </trkpt>
   <trkpt lat="52.44554" lon="21.1324">
    <ele>83.60000000000001</ele>
   </trkpt>
   <trkpt lat="52.44554" lon="21.13265">
    <ele>83.17</ele>
   </trkpt>
   <trkpt lat="52.44501000369901" lon="21.13360001162083">
    <ele>83.38000000000001</ele>
   </trkpt>
   <trkpt lat="52.444480000000006" lon="21.13455">
    <ele>83.18</ele>
   </trkpt>
   <trkpt lat="52.44392000352763" lon="21.13546501163586">
    <ele>82.58</ele>
   </trkpt>
   <trkpt lat="52.443360000000006" lon="21.136380000000003">
    <ele>82.09</ele>
   </trkpt>
   <trkpt lat="52.443000001473415" lon="21.136960004651137">
    <ele>81.84</ele>
   </trkpt>
   <trkpt lat="52.442640000000004" lon="21.13754">
    <ele>82.19000000000001</ele>
   </trkpt>
   <trkpt lat="52.44261" lon="21.13756">
    <ele>82.19000000000001</ele>
   </trkpt>
   <trkpt lat="52.44257" lon="21.13756">
    <ele>82.19000000000001</ele>
   </trkpt>
   <trkpt lat="52.44249000000001" lon="21.137500000000003">
    <ele>82.29</ele>
   </trkpt>
   <trkpt lat="52.44239" lon="21.137770000000003">
    <ele>82.12</ele>
   </trkpt>
   <trkpt lat="52.442370000000004" lon="21.13773">
    <ele>82.12</ele>
   </trkpt>
   <trkpt lat="52.442190000000004" lon="21.13811">
    <ele>81.98</ele>
   </trkpt>
   <trkpt lat="52.44182000000001" lon="21.138640000000002">
    <ele>81.99000000000001</ele>
   </trkpt>
   <trkpt lat="52.44126333871361" lon="21.139440020240837">
    <ele>82.13000000000001</ele>
   </trkpt>
   <trkpt lat="52.44070667202937" lon="21.140240020265725">
    <ele>82.29</ele>
   </trkpt>
   <trkpt lat="52.44015" lon="21.14104">
    <ele>82.37</ele>
   </trkpt>
   <trkpt lat="52.440000000000005" lon="21.14122">
    <ele>82.37</ele>
   </trkpt>
   <trkpt lat="52.439910000000005" lon="21.141270000000002">
    <ele>82.37</ele>
   </trkpt>
   <trkpt lat="52.43976000000001" lon="21.1416">
    <ele>82.68</ele>
   </trkpt>
   <trkpt lat="52.439127164206624" lon="21.142518650589388">
    <ele>83.23</ele>
   </trkpt>
   <trkpt lat="52.43849432129576" lon="21.143437274790596">
    <ele>83.80000000000001</ele>
   </trkpt>
   <trkpt lat="52.43786147126779" lon="21.144355872604695">
    <ele>84.26</ele>
   </trkpt>
   <trkpt lat="52.437228614123086" lon="21.14527444403274">
    <ele>84.30000000000001</ele>
   </trkpt>
   <trkpt lat="52.43659574986203" lon="21.146192989075804">
    <ele>84.63000000000001</ele>
   </trkpt>
   <trkpt lat="52.43596287848496" lon="21.147111507734948">
    <ele>84.72</ele>
   </trkpt>
   <trkpt lat="52.43533000000001" lon="21.148030000000002">
    <ele>85.04</ele>
   </trkpt>
   <trkpt lat="52.43517000000001" lon="21.14826">
    <ele>85.11</ele>
   </trkpt>
   <trkpt lat="52.435010000000005" lon="21.14843">
    <ele>85.12</ele>
   </trkpt>
   <trkpt lat="52.434870000000004" lon="21.14864">
    <ele>85.03</ele>
   </trkpt>
   <trkpt lat="52.43479000000001" lon="21.14882">
    <ele>85.03</ele>
   </trkpt>
   <trkpt lat="52.43415667416815" lon="21.149763360453388">
    <ele>84.44</ele>
   </trkpt>
   <trkpt lat="52.43352334083045" lon="21.150706693792685">
    <ele>84.97</ele>
   </trkpt>
   <trkpt lat="52.43289000000001" lon="21.15165">
    <ele>86.31000000000002</ele>
   </trkpt>
   <trkpt lat="52.43232333968886" lon="21.152520022416322">
    <ele>87.25</ele>
   </trkpt>
   <trkpt lat="52.43175667299342" lon="21.15339002246011">
    <ele>88.34</ele>
   </trkpt>
   <trkpt lat="52.43119" lon="21.15426">
    <ele>88.62</ele>
   </trkpt>
   <trkpt lat="52.430690000000006" lon="21.154850000000003">
    <ele>87.95</ele>
   </trkpt>
   <trkpt lat="52.43041" lon="21.15527">
    <ele>87.74000000000001</ele>
   </trkpt>
   <trkpt lat="52.430260000000004" lon="21.155600000000003">
    <ele>87.77</ele>
   </trkpt>
   <trkpt lat="52.429950000000005" lon="21.15574">
    <ele>87.4</ele>
   </trkpt>
   <trkpt lat="52.429930000000006" lon="21.15587">
    <ele>87.4</ele>
   </trkpt>
   <trkpt lat="52.42989000000001" lon="21.156010000000002">
    <ele>87.4</ele>
   </trkpt>
   <trkpt lat="52.4299" lon="21.1563">
    <ele>87.10000000000001</ele>
   </trkpt>
   <trkpt lat="52.429880000000004" lon="21.156370000000003">
    <ele>87.10000000000001</ele>
   </trkpt>
   <trkpt lat="52.42974" lon="21.156540000000003">
    <ele>86.59</ele>
   </trkpt>
   <trkpt lat="52.42958" lon="21.15681">
    <ele>86.47</ele>
   </trkpt>
   <trkpt lat="52.42956" lon="21.1569">
    <ele>86.47</ele>
   </trkpt>
   <trkpt lat="52.42897000311226" lon="21.157760011521663">
    <ele>85.48</ele>
   </trkpt>
   <trkpt lat="52.428380000000004" lon="21.158620000000003">
    <ele>85.03</ele>
   </trkpt>
   <trkpt lat="52.42783500266936" lon="21.15940000949594">
    <ele>85.09000000000002</ele>
   </trkpt>
   <trkpt lat="52.427290000000006" lon="21.16018">
    <ele>85.42</ele>
   </trkpt>
   <trkpt lat="52.42678500233067" lon="21.160935008759214">
    <ele>85.59000000000002</ele>
   </trkpt>
   <trkpt lat="52.426280000000006" lon="21.16169">
    <ele>86.27000000000001</ele>
   </trkpt>
   <trkpt lat="52.42602" lon="21.162100000000002">
    <ele>86.57000000000001</ele>
   </trkpt>
   <trkpt lat="52.425503341855034" lon="21.163106690314784">
    <ele>87.11</ele>
   </trkpt>
   <trkpt lat="52.42498667516189" lon="21.16411335703262">
    <ele>87.15</ele>
   </trkpt>
   <trkpt lat="52.42447000000001" lon="21.16512">
    <ele>87.06000000000002</ele>
   </trkpt>
   <trkpt lat="52.42427000000001" lon="21.1656">
    <ele>87.25</ele>
   </trkpt>
   <trkpt lat="52.42425000000001" lon="21.165740000000003">
    <ele>87.23</ele>
   </trkpt>
   <trkpt lat="52.424290000000006" lon="21.165760000000002">
    <ele>87.23</ele>
   </trkpt>
   <trkpt lat="52.42423" lon="21.16627">
    <ele>87.05</ele>
   </trkpt>
   <trkpt lat="52.42419" lon="21.166390000000003">
    <ele>87.10000000000001</ele>
   </trkpt>
   <trkpt lat="52.424130000000005" lon="21.16647">
    <ele>87.10000000000001</ele>
   </trkpt>
   <trkpt lat="52.42391000000001" lon="21.166670000000003">
    <ele>87.09</ele>
   </trkpt>
   <trkpt lat="52.42383" lon="21.16656">
    <ele>86.79</ele>
   </trkpt>
   <trkpt lat="52.4231350056073" lon="21.165894968561584">
    <ele>86.56000000000002</ele>
   </trkpt>
   <trkpt lat="52.42244000748405" lon="21.165229958090283">
    <ele>86.32000000000001</ele>
   </trkpt>
   <trkpt lat="52.421745005630484" lon="21.164564968585026">
    <ele>86.15</ele>
   </trkpt>
   <trkpt lat="52.42105" lon="21.1639">
    <ele>85.86</ele>
   </trkpt>
   <trkpt lat="52.421350000000004" lon="21.16298">
    <ele>85.91</ele>
   </trkpt>
   <trkpt lat="52.42136000000001" lon="21.162830000000003">
    <ele>85.91</ele>
   </trkpt>
   <trkpt lat="52.42101" lon="21.16196">
    <ele>85.69</ele>
   </trkpt>
   <trkpt lat="52.42056334265352" lon="21.160909978772807">
    <ele>85.38000000000001</ele>
   </trkpt>
   <trkpt lat="52.42011667600671" lon="21.15985997881981">
    <ele>85.17</ele>
   </trkpt>
   <trkpt lat="52.41967" lon="21.158810000000003">
    <ele>85.24000000000001</ele>
   </trkpt>
   <trkpt lat="52.4196" lon="21.15877">
    <ele>85.24000000000001</ele>
   </trkpt>
   <trkpt lat="52.419270000000004" lon="21.158730000000002">
    <ele>85.39</ele>
   </trkpt>
   <trkpt lat="52.419070000000005" lon="21.15867">
    <ele>85.51</ele>
   </trkpt>
   <trkpt lat="52.418363337460875" lon="21.157969977557446">
    <ele>85.83</ele>
   </trkpt>
   <trkpt lat="52.417656670788105" lon="21.157269977551877">
    <ele>86.0</ele>
   </trkpt>
   <trkpt lat="52.41695000000001" lon="21.156570000000002">
    <ele>85.72</ele>
   </trkpt>
  </trkseg>
 </trk>
</gpx>
